NORAD_CAT_ID,OBJECT_NAME,OBJECT_TYPE,EPOCH,MEAN_MOTION,ECCENTRICITY,INCLINATION,RA_OF_ASC_NODE,ARG_OF_PERICENTER,MEAN_ANOMALY,BSTAR,MEAN_MOTION_DOT,MEAN_MOTION_DDOT,TLE_LINE0,TLE_LINE1,TLE_LINE2,SEMIMAJOR_AXIS,PERIOD,APOGEE,PERIGEE,DECAYED
52564.0,STARLINK-3959,PAYLOAD,2024-05-03 10:37:31,15.08851665,0.0001124,53.2148,285.4324,83.3842,276.7278,0.00011024,1.468e-05,0.0,0 STARLINK-3959,1 52564U 22051AH  24124.44272962  .00001468  00000-0  11024-3 0  9991,2 52564  53.2148 285.4324 0001124  83.3842 276.7278 15.08851665109500,6917.845,95.437,540.487,538.932,0.0
52564.0,STARLINK-3959,PAYLOAD,2024-05-03 16:59:04,15.08851046,0.0001022,53.2129,284.2437,84.7958,275.3151,0.00014493,2.02e-05,0.0,0 STARLINK-3959,1 52564U 22051AH  24124.70768829  .00002020  00000-0  14493-3 0  9990,2 52564  53.2129 284.2437 0001022  84.7958 275.3151 15.08851046109475,6917.847,95.437,540.419,539.005,0.0
52564.0,STARLINK-3959,PAYLOAD,2024-05-04 04:06:46,15.08844832,9.41e-05,53.214,282.1631,84.0255,276.0844,0.00014831,2.074e-05,0.0,0 STARLINK-3959,1 52564U 22051AH  24125.17136977  .00002074  00000-0  14831-3 0  9990,2 52564  53.2140 282.1631 0000941  84.0255 276.0844 15.08844832109611,6917.866,95.437,540.382,539.08,0.0
52564.0,STARLINK-3959,PAYLOAD,2024-05-04 13:39:06,15.08828994,0.0001001,53.2153,280.3775,101.8715,258.2389,3.3304e-05,2.42e-06,0.0,0 STARLINK-3959,1 52564U 22051AH  24125.56882383  .00000242  00000-0  33304-4 0  9994,2 52564  53.2153 280.3775 0001001 101.8715 258.2389 15.08828994109674,6917.914,95.438,540.472,539.087,0.0
52564.0,STARLINK-3959,PAYLOAD,2024-05-05 13:29:52,15.08845986,9.87e-05,53.2166,275.9177,107.7286,252.3814,8.8889e-05,1.127e-05,0.0,0 STARLINK-3959,1 52564U 22051AH  24126.56241416  .00001127  00000-0  88889-4 0  9992,2 52564  53.2166 275.9177 0000987 107.7286 252.3814 15.08845986109829,6917.862,95.437,540.41,539.044,0.0
52564.0,STARLINK-3959,PAYLOAD,2024-05-05 16:40:38,15.0885075,9.82e-05,53.2167,275.3233,101.7969,258.3134,0.00018559,2.668e-05,0.0,0 STARLINK-3959,1 52564U 22051AH  24126.69489261  .00002668  00000-0  18559-3 0  9995,2 52564  53.2167 275.3233 0000982 101.7969 258.3134 15.08850750109774,6917.848,95.437,540.392,539.033,0.0
52564.0,STARLINK-3959,PAYLOAD,2024-05-06 13:20:39,15.08848124,0.0001009,53.2164,271.4584,95.9532,264.1575,0.00037763,5.729e-05,0.0,0 STARLINK-3959,1 52564U 22051AH  24127.55601642  .00005729  00000-0  37763-3 0  9999,2 52564  53.2164 271.4584 0001009  95.9532 264.1575 15.08848124109976,6917.856,95.437,540.419,539.023,0.0
52564.0,STARLINK-3959,PAYLOAD,2024-05-06 14:56:02,15.08850505,0.0001016,53.2165,271.1612,93.9033,266.2075,0.00041121,6.264e-05,0.0,0 STARLINK-3959,1 52564U 22051AH  24127.62225564  .00006264  00000-0  41121-3 0  9990,2 52564  53.2165 271.1612 0001016  93.9033 266.2075 15.08850505109916,6917.848,95.437,540.416,539.01,0.0
52564.0,STARLINK-3959,PAYLOAD,2024-05-06 16:31:25,15.08853386,9.67e-05,53.2165,270.8661,88.586,271.5243,0.00046064,7.054e-05,0.0,0 STARLINK-3959,1 52564U 22051AH  24127.68849450  .00007054  00000-0  46064-3 0  9991,2 52564  53.2165 270.8661 0000967  88.5860 271.5243 15.08853386109925,6917.839,95.437,540.373,539.036,0.0
52564.0,STARLINK-3959,PAYLOAD,2024-05-07 13:11:26,15.08841427,8.27e-05,53.2167,266.999,93.779,266.3296,4.3659e-05,4.07e-06,0.0,0 STARLINK-3959,1 52564U 22051AH  24128.54961612  .00000407  00000-0  43659-4 0  9995,2 52564  53.2167 266.9990 0000827  93.7790 266.3296 15.08841427110120,6917.876,95.437,540.313,539.169,0.0
52564.0,STARLINK-3959,PAYLOAD,2024-05-07 14:46:49,15.08842529,9.03e-05,53.2168,266.7013,100.637,259.4724,6.0702e-05,6.79e-06,0.0,0 STARLINK-3959,1 52564U 22051AH  24128.61585545  .00000679  00000-0  60702-4 0  9999,2 52564  53.2168 266.7013 0000903 100.6370 259.4724 15.08842529110068,6917.873,95.437,540.362,539.113,0.0
52564.0,STARLINK-3959,PAYLOAD,2024-05-07 16:22:13,15.08842646,9.01e-05,53.2157,266.4008,78.5944,281.515,4.9267e-05,4.97e-06,0.0,0 STARLINK-3959,1 52564U 22051AH  24128.68209507  .00000497  00000-0  49267-4 0  9998,2 52564  53.2157 266.4008 0000901  78.5944 281.5150 15.08842646110075,6917.872,95.437,540.361,539.114,0.0
52564.0,STARLINK-3959,PAYLOAD,2024-05-08 13:02:14,15.08835007,0.0001122,53.2175,262.5382,86.9792,273.1328,-1.8379e-07,-2.91e-06,0.0,0 STARLINK-3959,1 52564U 22051AH  24129.54322258 -.00000291  00000-0 -18379-6 0  9999,2 52564  53.2175 262.5382 0001122  86.9792 273.1328 15.08835007110276,6917.896,95.438,540.537,538.984,0.0
52564.0,STARLINK-3959,PAYLOAD,2024-05-08 14:37:37,15.08834944,0.0001114,53.2176,262.2411,89.3424,270.7695,9.9038e-06,-1.3e-06,0.0,0 STARLINK-3959,1 52564U 22051AH  24129.60946291 -.00000130  00000-0  99038-5 0  9996,2 52564  53.2176 262.2411 0001114  89.3424 270.7695 15.08834944110210,6917.896,95.438,540.531,538.99,0.0
52564.0,STARLINK-3959,PAYLOAD,2024-05-08 16:13:00,15.08840357,8.81e-05,53.2159,261.9418,71.9768,288.132,0.00012545,1.709e-05,0.0,0 STARLINK-3959,1 52564U 22051AH  24129.67569975  .00001709  00000-0  12545-3 0  9991,2 52564  53.2159 261.9418 0000881  71.9768 288.1320 15.08840357110226,6917.879,95.438,540.354,539.135,0.0
52564.0,STARLINK-3959,PAYLOAD,2024-05-09 14:28:24,15.08849871,8.3e-05,53.2167,257.7791,88.2799,271.8288,0.00036185,5.477e-05,0.0,0 STARLINK-3959,1 52564U 22051AH  24130.60305906  .00005477  00000-0  36185-3 0  9990,2 52564  53.2167 257.7791 0000830  88.2799 271.8288 15.08849871110368,6917.85,95.437,540.289,539.141,0.0
52564.0,STARLINK-3959,PAYLOAD,2024-05-09 16:03:47,15.08853421,9.21e-05,53.2154,257.4814,93.8267,266.2831,0.00044009,6.726e-05,0.0,0 STARLINK-3959,1 52564U 22051AH  24130.66929805  .00006726  00000-0  44009-3 0  9998,2 52564  53.2154 257.4814 0000921  93.8267 266.2831 15.08853421110447,6917.839,95.437,540.341,539.067,0.0
52564.0,STARLINK-3959,PAYLOAD,2024-05-10 01:36:06,15.08848073,0.0001154,53.216,255.6983,70.0238,290.0878,0.00058119,8.976e-05,0.0,0 STARLINK-3959,1 52564U 22051AH  24131.06674329  .00008976  00000-0  58119-3 0  9997,2 52564  53.2160 255.6983 0001154  70.0238 290.0878 15.08848073110505,6917.856,95.437,540.519,538.922,0.0
52564.0,STARLINK-3959,PAYLOAD,2024-05-10 14:19:11,15.08850452,9.59e-05,53.2134,253.3177,68.3729,291.7365,0.00029938,4.481e-05,0.0,0 STARLINK-3959,1 52564U 22051AH  24131.59665700  .00004481  00000-0  29938-3 0  9992,2 52564  53.2134 253.3177 0000959  68.3729 291.7365 15.08850452110517,6917.848,95.437,540.377,539.05,0.0
52564.0,STARLINK-3959,PAYLOAD,2024-05-11 14:09:55,15.08956835,0.0001163,53.2139,248.8569,84.8229,275.2896,0.0033037,0.00052854,0.0,0 STARLINK-3959,1 52564U 22051AH  24132.59022311  .00052854  00000-0  33037-2 0  9999,2 52564  53.2139 248.8569 0001163  84.8229 275.2896 15.08956835110734,6917.523,95.43,540.193,538.584,0.0
52564.0,STARLINK-3959,PAYLOAD,2024-05-12 01:17:41,15.08712093,9.39e-05,53.217,246.7803,47.1465,312.9605,-0.0049666,-0.00078198,0.0,0 STARLINK-3959,1 52564U 22051AH  24133.05394718 -.00078198  00000-0 -49666-2 0  9990,2 52564  53.2170 246.7803 0000939  47.1465 312.9605 15.08712093110802,6918.271,95.446,540.786,539.487,0.0
52564.0,STARLINK-3959,PAYLOAD,2024-05-12 14:00:53,15.08616065,0.0001221,53.2156,244.4002,81.4628,278.6502,-0.0036422,-0.00057439,0.0,0 STARLINK-3959,1 52564U 22051AH  24133.58394868 -.00057439  00000-0 -36422-2 0  9995,2 52564  53.2156 244.4002 0001221  81.4628 278.6502 15.08616065110883,6918.565,95.452,541.275,539.585,0.0
52564.0,STARLINK-3959,PAYLOAD,2024-05-13 04:19:22,15.08781475,0.0002015,53.217,241.7234,120.3681,239.751,0.0040306,0.00064342,0.0,0 STARLINK-3959,1 52564U 22051AH  24134.18012649  .00064342  00000-0  40306-2 0  9991,2 52564  53.2170 241.7234 0002015 120.3681 239.7510 15.08781475110975,6918.059,95.441,541.318,538.53,0.0
52564.0,STARLINK-3959,PAYLOAD,2024-05-13 12:16:18,15.08851962,0.0001603,53.2171,240.2367,110.9394,249.177,0.003521,0.00056214,0.0,0 STARLINK-3959,1 52564U 22051AH  24134.51132080  .00056214  00000-0  35210-2 0  9997,2 52564  53.2171 240.2367 0001603 110.9394 249.1770 15.08851962110955,6917.844,95.437,540.818,538.6,0.0
52564.0,STARLINK-3959,PAYLOAD,2024-05-14 12:06:59,15.08949247,0.0001602,53.2172,235.7794,113.5234,246.5926,0.0018193,0.00028872,0.0,0 STARLINK-3959,1 52564U 22051AH  24135.50485930  .00028872  00000-0  18193-2 0  9992,2 52564  53.2172 235.7794 0001602 113.5234 246.5926 15.08949247111173,6917.546,95.431,540.52,538.303,0.0
52564.0,STARLINK-3959,PAYLOAD,2024-05-14 13:42:22,15.08952404,0.0001435,53.2173,235.4809,96.992,263.1235,0.0018224,0.00028924,0.0,0 STARLINK-3959,1 52564U 22051AH  24135.57109490  .00028924  00000-0  18224-2 0  9996,2 52564  53.2173 235.4809 0001435  96.9920 263.1235 15.08952404111119,6917.537,95.43,540.395,538.409,0.0
52564.0,STARLINK-3959,PAYLOAD,2024-05-15 05:36:12,15.08896136,0.000325,53.2177,232.5036,93.764,266.3723,0.00074429,0.00011596,0.0,0 STARLINK-3959,1 52564U 22051AH  24136.23347845  .00011596  00000-0  74429-3 0  9995,2 52564  53.2177 232.5036 0003250  93.7640 266.3723 15.08896136111288,6917.709,95.434,541.822,537.326,0.0
52564.0,STARLINK-3959,PAYLOAD,2024-05-15 11:57:44,15.08871219,0.0001334,53.2166,231.3158,110.0182,250.0953,0.0014733,0.00023257,0.0,0 STARLINK-3959,1 52564U 22051AH  24136.49843373  .00023257  00000-0  14733-2 0  9998,2 52564  53.2166 231.3158 0001334 110.0182 250.0953 15.08871219111328,6917.785,95.436,540.573,538.727,0.0
52564.0,STARLINK-3959,PAYLOAD,2024-05-15 23:05:26,15.08874828,0.000108,53.2152,229.232,77.6588,282.4524,0.0010863,0.00017059,0.0,0 STARLINK-3959,1 52564U 22051AH  24136.96210669  .00017059  00000-0  10863-2 0  9999,2 52564  53.2152 229.2320 0001080  77.6588 282.4524 15.08874828111395,6917.774,95.435,540.386,538.892,0.0
52564.0,STARLINK-3959,PAYLOAD,2024-05-16 13:23:53,15.0887911,0.0001629,53.2158,226.5533,84.3869,275.7309,0.0012294,0.00019353,0.0,0 STARLINK-3959,1 52564U 22051AH  24137.55826046  .00019353  00000-0  12294-2 0  9996,2 52564  53.2158 226.5533 0001629  84.3869 275.7309 15.08879110111488,6917.761,95.435,540.753,538.499,0.0
